#aV2016  6  5  0  0  0.00000000     288 DD+AD WGS84 FIT  NGA
## 1900      0.00000000   300.00000000 57544 0.0000000000000
+   31     1  2  3  5  6  7  8  9 10 11 12 13 14 15 16 17 18
+         19 20 21 22 23 24 25 26 27 28 29 30 31 32  0  0  0
+          0  0  0  0  0  0  0  0  0  0  0  0  0  0  0  0  0
+          0  0  0  0  0  0  0  0  0  0  0  0  0  0  0  0  0
+          0  0  0  0  0  0  0  0  0  0  0  0  0  0  0  0  0
++         2  2  2  2  2  2  2  2  2  2  2  2  2  2  2  2  2
++         2  2  2  2  2  2  2  2  2  2  2  2  2  2  0  0  0
++         0  0  0  0  0  0  0  0  0  0  0  0  0  0  0  0  0
++         0  0  0  0  0  0  0  0  0  0  0  0  0  0  0  0  0
++         0  0  0  0  0  0  0  0  0  0  0  0  0  0  0  0  0
%c cc cc ccc ccc cccc cccc cccc cccc ccccc ccccc ccccc ccccc
%c cc cc ccc ccc cccc cccc cccc cccc ccccc ccccc ccccc ccccc
%f  0.0000000  0.000000000  0.00000000000  0.000000000000000
%f  0.0000000  0.000000000  0.00000000000  0.000000000000000
%i    0    0    0    0      0      0      0      0         0
%i    0    0    0    0      0      0      0      0         0
/*      NGA, ST. LOUIS,MO.                                  
/*   EPHEMERIS COMPUTED FROM 2 DAYS OF DATA                 
/*   EPOCHA v2.4 SMOOTHER                                   
/*   G1762 IERS2010 SATAF SATAPC                            
*  2016  6  5  3 20  0.00000000
P  1   6594.936614  14175.340664 -21577.933759     22.609602                    
V  1 -26847.795875   4169.566191  -5253.213079      0.012184                    
P  2  15238.471203 -14801.278528  16137.855960    587.527233                    
V  2  19988.942843  -1372.532926 -21095.651556     -0.024850                    
P  3  12660.753000  22594.382625  -5873.357801    -64.390645                    
V  3  -6822.905623  -4123.640407 -30532.188660     -0.035111                    
P  5   3654.421082 -17657.676187  19371.848668   -115.325326                    
V  5  16873.495210  18309.951249  13658.118003      0.029691                    
P  6  25581.892170  -6279.450183   3439.663069    200.257340                    
V  6   4700.043922   1993.182656 -31430.909910      0.054204                    
P  7  21871.764827   6919.199804  13870.690786    450.421370                    
V  7 -16862.919632   3849.056571  24517.178770     -0.023463                    
P  8  -4868.402049  25234.672961  -6575.718108    -37.809759                    
V  8  -5504.930688   6898.869311  30360.633225     -0.014646                    
P  9  11086.979843  12163.824229  20827.601755    142.532016                    
V  9 -10337.443211  24417.794110  -8769.947748      0.072934                    
P 10 -19155.216633  -3695.023262 -18033.676330    -38.439546                    
V 10 -13087.117531 -18884.821724  17682.246678     -0.084808                    
P 11   1514.927453  17753.998627 -20249.341155   -649.461331                    
V 11 -22157.531641  11199.091000   8431.345576     -0.014548                    
P 12  -9403.736995 -23349.031877  -8947.615482    381.821057                    
V 12   7665.984459   8138.608114 -29531.956051      0.011075                    
P 13  12446.655241 -23518.432727   -108.602517    -22.592858                    
V 13   2108.680314   1140.194936  31938.502947     -0.025523                    
P 14 -17748.763100  10596.661282 -16331.628078    -17.643931                    
V 14   7542.227261 -19991.365895 -20996.058754     -0.020516                    
P 15   1087.984719 -24831.334394  -8981.134432   -313.925522                    
V 15   7018.775215  -9689.626190  28378.384512     -0.016357                    
P 16  -4999.878271  16191.530294  20234.785801    -12.926018                    
V 16 -15450.938779 -20894.646906  13208.641363      0.024883                    
P 17  16809.453440  -5344.391010 -19469.034857   -203.983808                    
V 17  -9319.141824  23717.998288 -14495.141031     -0.000561                    
P 18 -20525.709894 -14666.132085  -8159.283574    523.112151                    
V 18  -4454.837567 -10757.162117  28379.604973      0.040355                    
P 19  17869.443881 -14653.868932 -13659.741816   -525.587644                    
V 19  -6211.651524  15657.168470 -25018.624207      0.001134                    
P 20 -11097.417190 -22123.212809   9432.100540    416.510755                    
V 20  11015.043940   6470.094980  27740.709772      0.022992                    
P 21 -23649.862892  -4843.436168  12090.486284   -524.885943                    
V 21  13500.947867  -5041.527392  25789.787696     -0.011489                    
P 22   5619.337557  22127.731819 -13231.150451    327.131566                    
V 22 -13722.832224 -11101.637770 -24082.382375     -0.084895                    
P 23   4710.534623  20315.022925  16380.179034   -176.783972                    
V 23  -9741.224071  18371.143072 -20665.381841     -0.016110                    
P 24  -2770.515770 -15236.792545 -21635.684435    -18.101368                    
V 24  26987.473827  -4601.455547    -23.393432     -0.005629                    
P 25 -17611.013577 -19891.017571   2181.787483   -184.357909                    
V 25   -156.766957  -3579.722838 -31851.237646     -0.070362                    
P 26 -12997.534344   8078.009446  21705.320035   -386.182895                    
V 26 -17167.499281 -21578.150051  -2201.095431     -0.115967                    
P 27 -12051.957773  23199.844186   4093.484410    100.044665                    
V 27   -488.910230  -5837.545180  31544.621494      0.041520                    
P 28  18434.569706   7172.417819 -17119.118461    527.911809                    
V 28  11709.218949  19729.807650  20105.323815      0.026260                    
P 29  -7791.612958 -15502.301889  20128.170328    656.918369                    
V 29  11482.789509 -22769.309246 -13051.118262     -0.002023                    
P 30  26136.821741   1346.818271   4832.142702    130.708624                    
V 30  -5880.555448   3414.482675  30701.280499      0.028465                    
P 31 -24807.137338   7498.923243   6736.597382    265.509517                    
V 31  -8507.431925  -1088.428316 -30223.419792     -0.019249                    
P 32 -17100.852418   7691.070830 -18794.463920    -18.262498                    
V 32   7298.085727 -22798.769264 -15976.004262     -0.073873                    
EOF
